#cP2016  1  1  0  0  0.00000000      96 d+D   IGb08 FIT AIUB
## 1877 432000.00000000   900.00000000 57388 0.0000000000000
+   55   G01G02G03G05G06G07G08G09G10G11G12G13G14G15G16G17G18
+        G19G20G21G22G23G24G25G26G27G28G29G30G31G32R01R02R03
+        R04R05R06R07R08R09R10R11R12R13R14R15R16R18R19R20R21
+        R22R23R24R26  0  0  0  0  0  0  0  0  0  0  0  0  0
+          0  0  0  0  0  0  0  0  0  0  0  0  0  0  0  0  0
++         4  4  4  4  4  6  4  4  4  6  4  4  4  4  4  7  4
++         5  4  4  4  4  6  4  4  4  4  6  5  6  4  5  4  4
++         5  4  4  4  4  5  5  5  6  4  5  4  5  5  6  6  6
++         6  6  6  8  0  0  0  0  0  0  0  0  0  0  0  0  0
++         0  0  0  0  0  0  0  0  0  0  0  0  0  0  0  0  0
%c M  cc GPS ccc cccc cccc cccc cccc ccccc ccccc ccccc ccccc
%c cc cc ccc ccc cccc cccc cccc cccc ccccc ccccc ccccc ccccc
%f  1.2500000  1.025000000  0.00000000000  0.000000000000000
%f  0.0000000  0.000000000  0.00000000000  0.000000000000000
%i    0    0    0    0      0      0      0      0         0
%i    0    0    0    0      0      0      0      0         0
/* Center for Orbit Determination in Europe (CODE)          
/* Final GNSS orbits and GPS clocks for year-day 16001      
/* Note: Middle day of a 3-day arc GPS/GLONASS solution     
/* PCV:IGS08      OL/AL:FES2004  NONE     YN ORB:CoN CLK:CoN
*  2016  1  1  2 30  0.00000000
PG01  -2487.810003 -15037.996413 -21815.974277      8.023274
PG02 -19363.588638  14543.471736  10801.349834    598.691845
PG03  -9493.366464 -21413.493865 -12512.578779     -5.506777
PG05  -8744.037106  12965.022282  21385.303620   -159.636796
PG06 -25775.811165   6128.606274  -1785.309475    121.692088
PG07 -18576.633647  -7728.220423  17664.007369    475.422261
PG08   5482.011340 -25955.145941  -1219.379975    -18.335326
PG09 -10360.835433 -15004.675279  19292.264867     40.530463
PG10  21437.568908   6826.193635 -14147.404845     48.144865
PG11   1379.919193 -19489.992067 -18519.224128   -624.831802
PG12   6417.961579  21201.859269 -14921.527186    357.625117
PG13 -12662.977428  22649.658075   5757.205601   -175.333099
PG14  15853.853671  -1611.474157 -20974.673386     11.972329
PG15  -1869.314350  25996.837666  -4157.432055   -290.018118
PG16   9408.906557 -11177.286624  22078.218318    -52.301824
PG17 -15388.123691   1121.551623 -21268.970104   -197.906051
PG18  21078.580145  15957.079366  -3268.300251    468.452964
PG19 -14927.771764  -2894.559926 -22042.859110   -524.155258
PG20   7966.017100  20661.416584  14459.808750    382.483656
PG21  21406.400257   5458.630866  15683.912293   -502.736335
PG22  19523.278492   -463.023817 -17867.577006    416.011560
PG23  -2608.542146 -23646.041140  11518.502995   -152.644196
PG24   -646.261997  16011.767940 -21196.556262    -10.083276
PG25  17097.559355  20118.424237  -3782.625536    -92.050253
PG26  17089.631777  -3109.820912  20106.707799   -191.117701
PG27  11662.070607 -22088.521462   8804.402168     49.363453
PG28 -20381.749008  -9460.691763 -13572.593013    492.223513
PG29   7316.262598  17960.655870  18181.375030    650.262659
PG30 -24987.896808  -1271.478528   9028.266227     78.538767
PG31  25930.210991  -6605.980502    158.984024    288.933520
PG32   1808.383458 -18701.835214 -19045.241370     66.056335
PR01   6847.956965  23185.880730   8103.392264 999999.999999
PR02  14186.190374  18630.770078 -10130.766557 999999.999999
PR03  12902.622863   2924.068626 -21785.293895 999999.999999
PR04   3822.114211 -14708.851686 -20477.063168 999999.999999
PR05  -7258.105243 -23289.436761  -7485.965796 999999.999999
PR06 -14525.500175 -17915.492741  10844.583985 999999.999999
PR07 -12818.807369  -2622.452968  21916.611906 999999.999999
PR08  -4183.901854  14299.128698  20743.772807 999999.999999
PR09 -20825.228855  -7620.557900  12492.892716 999999.999999
PR10 -25151.084142   -277.785913  -4483.529819 999999.999999
PR11 -14850.513615   7662.238911 -19234.498137 999999.999999
PR12   4160.285911  10983.645628 -22645.403015 999999.999999
PR13  21104.521648   7357.029855 -12304.766262 999999.999999
PR14  24817.029537   -342.129359   5715.155727 999999.999999
PR15  16066.165941  -6978.189872  18602.186059 999999.999999
PR16  -5530.449791 -10958.578570  22345.338387 999999.999999
PR18  15569.763500 -19993.960071   2627.749188 999999.999999
PR19   5526.465766 -19620.020504 -15337.040667 999999.999999
PR20  -7914.966565  -7218.250172 -23140.464143 999999.999999
PR21 -16134.512693   8445.957264 -17843.288418 999999.999999
PR22 -15486.252577  20241.431802  -2162.252004 999999.999999
PR23  -5069.538069  19637.369038  15462.986709 999999.999999
PR24   7176.388266   8291.903470  23009.334913 999999.999999
PR26  -8722.491474  -6211.240494 -23139.148172 999999.999999
*  2016  1  1  2 45  0.00000000
PG01   -128.958695 -15738.112136 -21440.786367      8.024133
PG02 -20456.392670  14621.742375   8252.663506    598.692215
PG03  -8201.031389 -20517.415820 -14732.666246     -5.511397
PG05 -10604.801453  11335.513742  21486.304583   -159.633311
PG06 -25502.744437   5781.717079  -4616.103755    121.697781
PG07 -16619.609229  -8414.684847  19208.363125    475.420973
PG08   5725.893194 -25885.343376   1638.556330    -18.336983
PG09  -9787.510720 -17059.520509  17829.182852     40.537648
PG10  22406.639604   7973.976799 -11866.163162     48.146838
PG11   3057.946608 -20538.720870 -17080.168706   -624.833483
PG12   5077.824631  20007.141283 -16944.691188    357.627665
PG13 -12593.375215  21799.820835   8474.574736   -175.335731
PG14  15196.681707    785.116571 -21508.418711     11.970065
PG15  -2274.623753  26244.256147  -1365.001656   -290.019838
PG16  11181.853321  -9358.011852  22130.500159    -52.298718
PG17 -14784.078130  -1331.225580 -21693.129702   -197.906467
PG18  21064.058261  16389.414060   -512.906732    468.456339
PG19 -14168.820013  -5243.903904 -22073.155325   -524.155180
PG20   6386.694792  19759.751355  16363.592683    382.486173
PG21  19788.323386   6206.225687  17484.655279   -502.737598
PG22  20900.948863    995.010791 -16248.357071    416.008434
PG23  -2081.981833 -24727.140655   9012.083279   -152.646008
PG24  -2923.401948  16708.660294 -20435.792229    -10.082796
PG25  16545.865213  19867.103228  -6581.761538    -92.055894
PG26  18673.130054  -1540.338142  18842.390670   -191.133082
PG27  11630.461260 -20909.926426  11360.500391     49.366526
PG28 -21304.608276 -10656.878138 -11173.077059    492.225918
PG29   6671.300842  19827.793627  16403.794313    650.263858
PG30 -23903.077656  -1781.194933  11525.283823     78.543124
PG31  25832.628637  -6377.582081  -2695.169072    288.931805
PG32   3402.110469 -17151.452547 -20206.491030     66.067415
PR01   6396.399696  22089.748696  11011.927794 999999.999999
PR02  14800.701584  19517.494452  -7156.342626 999999.999999
PR03  14149.072066   5226.843376 -20549.547852 999999.999999
PR04   4970.462615 -12368.414458 -21739.291640 999999.999999
PR05  -6843.998075 -22261.407443 -10429.951050 999999.999999
PR06 -15161.454464 -18893.276755   7925.067250 999999.999999
PR07 -14064.937946  -4933.632531  20718.030280 999999.999999
PR08  -5337.537340  11942.147788  21938.952509 999999.999999
PR09 -19125.431247  -7407.770859  15077.504440 999999.999999
PR10 -25516.187884    -86.525974  -1272.807326 999999.999999
PR11 -17110.068520   7665.806330 -17246.928194 999999.999999
PR12   1346.706915  10822.366391 -23074.560884 999999.999999
PR13  19434.342744   7127.199162 -14916.585088 999999.999999
PR14  25339.432821   -512.615256   2521.824481 999999.999999
PR15  18232.146313  -6995.738501  16484.917603 999999.999999
PR16  -2735.318138 -10785.671573  22931.119642 999999.999999
PR18  15147.103975 -19650.117539   5800.984479 999999.999999
PR19   6379.069675 -21139.428842 -12773.895102 999999.999999
PR20  -6337.540530  -9576.287711 -22763.747725 999999.999999
PR21 -14780.300327   6559.698348 -19713.802595 999999.999999
PR22 -15077.996572  19956.660024  -5337.636062 999999.999999
PR23  -5913.907956  21180.420723  12917.697284 999999.999999
PR24   5659.368456  10659.886009  22451.441601 999999.999999
PR26  -7175.486364  -8599.986339 -22907.113790 999999.999999
EOF
